[{"OBJECT_NAME":"STARLINK-31143","OBJECT_ID":"2024-011F","EPOCH":"2026-03-09T05:52:42.210336","MEAN_MOTION":15.30186255,"ECCENTRICITY":7.328e-5,"INCLINATION":53.1621,"RA_OF_ASC_NODE":15.6419,"ARG_OF_PERICENTER":82.7185,"MEAN_ANOMALY":277.3899,"EPHEMERIS_TYPE":0,"CLASSIFICATION_TYPE":"U","NORAD_CAT_ID":58770,"ELEMENT_SET_NO":999,"REV_AT_EPOCH":12020,"BSTAR":1.0791791e-5,"MEAN_MOTION_DOT":-3.9e-7,"MEAN_MOTION_DDOT":0},{"OBJECT_NAME":"OKEAN-1","OBJECT_ID":"1988-056A","EPOCH":"2026-03-09T21:19:04.260000","MEAN_MOTION":15.31672069,"ECCENTRICITY":0.00129431,"INCLINATION":82.4671,"RA_OF_ASC_NODE":262.7586,"ARG_OF_PERICENTER":168.0696,"MEAN_ANOMALY":192.0855,"EPHEMERIS_TYPE":0,"CLASSIFICATION_TYPE":"U","NORAD_CAT_ID":19274,"ELEMENT_SET_NO":999,"REV_AT_EPOCH":3511,"BSTAR":0.00038371192,"MEAN_MOTION_DOT":0.00011798,"MEAN_MOTION_DDOT":0}]
